ONEWEB-0431             
1 51630U 22012J   24089.59104971  .00000793  00000+0  22360-2 0  9994
2 51630  87.8989 197.1376 0001681 130.2515 229.8760 13.10372805103315
ONEWEB-0434             
1 51631U 22012K   24089.33937102 -.00000234  00000+0 -70707-3 0  9998
2 51631  87.8998 197.1967 0001650 101.3487 258.7826 13.10376259103260
ONEWEB-0435             
1 51632U 22012L   24089.57657229  .00000218  00000+0  58844-3 0  9992
2 51632  87.9001 197.1405 0001402 104.4893 255.6390 13.10377238104568
ONEWEB-0436             
1 51633U 22012M   24089.50568841  .00000102  00000+0  23036-3 0  9994
2 51633  87.9243 166.9557 0001779  99.9002 260.2330 13.17648920107055
ONEWEB-0438             
1 51634U 22012N   24089.71302981 -.00000709  00000+0 -20664-2 0  9997
2 51634  87.9000 197.1147 0001954 101.0524 259.0823 13.10374205103332
ONEWEB-0439             
1 51635U 22012P   24089.33449214 -.00000497  00000+0 -14588-2 0  9999
2 51635  87.9000 197.1731 0001826 107.2275 252.9052 13.10376002103266
ONEWEB-0442             
1 51636U 22012Q   24089.49698744  .00000077  00000+0  16591-3 0  9990
2 51636  87.9245 166.9892 0002839 105.8341 254.3104 13.17649780107040
ONEWEB-0443             
1 51637U 22012R   24089.44082158  .00000136  00000+0  31653-3 0  9994
2 51637  87.9247 167.0069 0001728  89.0307 271.1023 13.17648959108373
